{"type": "FeatureCollection", "features": [ {"type": "Feature", "properties": {"norad_id": 39155, "name": "COSMOS 2485 (747)", "group": "glo-ops", "lat": -48.73662576691032, "lon": -68.60323736111344, "alt_km": 19073.20591872489, "timestamp": "2025-12-13T20:38:51.265639+00:00", "meta": {"OBJECT_NAME": "COSMOS 2485 (747)", "OBJECT_ID": "2013-019A", "EPOCH": "2025-12-11T16:13:03.281952", "MEAN_MOTION": 2.13102869, "ECCENTRICITY": 0.00245837, "INCLINATION": 65.313, "RA_OF_ASC_NODE": 79.9029, "ARG_OF_PERICENTER": 229.3313, "MEAN_ANOMALY": 130.4708, "EPHEMERIS_TYPE": 0, "CLASSIFICATION_TYPE": "U", "NORAD_CAT_ID": 39155, "ELEMENT_SET_NO": 999, "REV_AT_EPOCH": 9828, "BSTAR": 0, "MEAN_MOTION_DOT": -3.1e-07, "MEAN_MOTION_DDOT": 0}, "tle": {"line1": "1 39155U 13019A   25345.67573243 -.00000031  00000+0  00000+0 0  9996", "line2": "2 39155  65.3130  79.9029 0024583 229.3313 130.4708  2.13102869 98286"}}, "geometry": {"type": "Point", "coordinates": [-68.60323736111344, -48.73662576691032]}}, {"type": "Feature", "properties": {"norad_id": 39620, "name": "COSMOS 2492 (754)", "group": "glo-ops", "lat": -65.27709046886537, "lon": -135.79198437986852, "alt_km": 19110.376135193, "timestamp": "2025-12-13T20:38:51.265650+00:00", "meta": {"OBJECT_NAME": "COSMOS 2492 (754)", "OBJECT_ID": "2014-012A", "EPOCH": "2025-12-12T02:29:11.116896", "MEAN_MOTION": 2.1310296, "ECCENTRICITY": 0.00141989, "INCLINATION": 65.408, "RA_OF_ASC_NODE": 320.2923, "ARG_OF_PERICENTER": 311.6032, "MEAN_ANOMALY": 48.2746, "EPHEMERIS_TYPE": 0, "CLASSIFICATION_TYPE": "U", "NORAD_CAT_ID": 39620, "ELEMENT_SET_NO": 999, "REV_AT_EPOCH": 9125, "BSTAR": 0, "MEAN_MOTION_DOT": -5.5e-07, "MEAN_MOTION_DDOT": 0}, "tle": {"line1": "1 39620U 14012A   25346.10360089 -.00000055  00000+0  00000+0 0  9994", "line2": "2 39620  65.4080 320.2923 0014198 311.6032  48.2746  2.13102960 91257"}}, "geometry": {"type": "Point", "coordinates": [-135.79198437986852, -65.27709046886537]}}, {"type": "Feature", "properties": {"norad_id": 40001, "name": "COSMOS 2500 (755)", "group": "glo-ops", "lat": 39.570089223464734, "lon": 117.67924709460212, "alt_km": 19122.676944493378, "timestamp": "2025-12-13T20:38:51.265662+00:00", "meta": {"OBJECT_NAME": "COSMOS 2500 (755)", "OBJECT_ID": "2014-032A", "EPOCH": "2025-12-12T17:52:53.552928", "MEAN_MOTION": 2.13105799, "ECCENTRICITY": 0.00082294, "INCLINATION": 65.343, "RA_OF_ASC_NODE": 320.0321, "ARG_OF_PERICENTER": 219.0153, "MEAN_ANOMALY": 140.9247, "EPHEMERIS_TYPE": 0, "CLASSIFICATION_TYPE": "U", "NORAD_CAT_ID": 40001, "ELEMENT_SET_NO": 999, "REV_AT_EPOCH": 8948, "BSTAR": 0, "MEAN_MOTION_DOT": -5.8e-07, "MEAN_MOTION_DDOT": 0}, "tle": {"line1": "1 40001U 14032A   25346.74506427 -.00000058  00000+0  00000+0 0  9992", "line2": "2 40001  65.3430 320.0321 0008229 219.0153 140.9247  2.13105799 89484"}}, "geometry": {"type": "Point", "coordinates": [117.67924709460212, 39.570089223464734]}}, {"type": "Feature", "properties": {"norad_id": 40315, "name": "COSMOS 2501 (702K)", "group": "glo-ops", "lat": -53.30229845000327, "lon": 155.02686371818294, "alt_km": 19137.36458852356, "timestamp": "2025-12-13T20:38:51.265674+00:00", "meta": {"OBJECT_NAME": "COSMOS 2501 (702K)", "OBJECT_ID": "2014-075A", "EPOCH": "2025-12-12T01:35:26.425248", "MEAN_MOTION": 2.13101306, "ECCENTRICITY": 0.0020213, "INCLINATION": 63.6138, "RA_OF_ASC_NODE": 196.8484, "ARG_OF_PERICENTER": 204.6963, "MEAN_ANOMALY": 155.2753, "EPHEMERIS_TYPE": 0, "CLASSIFICATION_TYPE": "U", "NORAD_CAT_ID": 40315, "ELEMENT_SET_NO": 999, "REV_AT_EPOCH": 8586, "BSTAR": 0, "MEAN_MOTION_DOT": 6.5e-07, "MEAN_MOTION_DDOT": 0}, "tle": {"line1": "1 40315U 14075A   25346.06627807  .00000065  00000+0  00000+0 0  9995", "line2": "2 40315  63.6138 196.8484 0020213 204.6963 155.2753  2.13101306 85862"}}, "geometry": {"type": "Point", "coordinates": [155.02686371818294, -53.30229845000327]}}, {"type": "Feature", "properties": {"norad_id": 41330, "name": "COSMOS 2514 (751)", "group": "glo-ops", "lat": -45.10596849077411, "lon": -68.38132650167805, "alt_km": 19134.470129207482, "timestamp": "2025-12-13T20:38:51.265685+00:00", "meta": {"OBJECT_NAME": "COSMOS 2514 (751)", "OBJECT_ID": "2016-008A", "EPOCH": "2025-12-11T02:40:55.560288", "MEAN_MOTION": 2.13102604, "ECCENTRICITY": 0.0012161, "INCLINATION": 65.1347, "RA_OF_ASC_NODE": 319.4596, "ARG_OF_PERICENTER": 220.0573, "MEAN_ANOMALY": 139.8518, "EPHEMERIS_TYPE": 0, "CLASSIFICATION_TYPE": "U", "NORAD_CAT_ID": 41330, "ELEMENT_SET_NO": 999, "REV_AT_EPOCH": 7661, "BSTAR": 0, "MEAN_MOTION_DOT": -5.2e-07, "MEAN_MOTION_DDOT": 0}, "tle": {"line1": "1 41330U 16008A   25345.11175417 -.00000052  00000+0  00000+0 0  9998", "line2": "2 41330  65.1347 319.4596 0012161 220.0573 139.8518  2.13102604 76610"}}, "geometry": {"type": "Point", "coordinates": [-68.38132650167805, -45.10596849077411]}}, {"type": "Feature", "properties": {"norad_id": 42939, "name": "COSMOS 2522 (752)", "group": "glo-ops", "lat": 59.06428487161498, "lon": -107.56108317809917, "alt_km": 19138.144696583033, "timestamp": "2025-12-13T20:38:51.265696+00:00", "meta": {"OBJECT_NAME": "COSMOS 2522 (752)", "OBJECT_ID": "2017-055A", "EPOCH": "2025-12-10T22:48:12.074400", "MEAN_MOTION": 2.1310181, "ECCENTRICITY": 0.00064932, "INCLINATION": 64.076, "RA_OF_ASC_NODE": 198.29, "ARG_OF_PERICENTER": 225.3551, "MEAN_ANOMALY": 134.6611, "EPHEMERIS_TYPE": 0, "CLASSIFICATION_TYPE": "U", "NORAD_CAT_ID": 42939, "ELEMENT_SET_NO": 999, "REV_AT_EPOCH": 6396, "BSTAR": 0, "MEAN_MOTION_DOT": 5.1e-07, "MEAN_MOTION_DDOT": 0}, "tle": {"line1": "1 42939U 17055A   25344.95013975  .00000051  00000+0  00000+0 0  9996", "line2": "2 42939  64.0760 198.2900 0006493 225.3551 134.6611  2.13101810 63969"}}, "geometry": {"type": "Point", "coordinates": [-107.56108317809917, 59.06428487161498]}}, {"type": "Feature", "properties": {"norad_id": 43508, "name": "COSMOS 2527 (756)", "group": "glo-ops", "lat": 62.64121099795705, "lon": -161.6744280694487, "alt_km": 19134.844798196547, "timestamp": "2025-12-13T20:38:51.265707+00:00", "meta": {"OBJECT_NAME": "COSMOS 2527 (756)", "OBJECT_ID": "2018-053A", "EPOCH": "2025-12-12T18:54:40.094784", "MEAN_MOTION": 2.13102055, "ECCENTRICITY": 0.00086164, "INCLINATION": 65.4727, "RA_OF_ASC_NODE": 80.1298, "ARG_OF_PERICENTER": 224.8519, "MEAN_ANOMALY": 135.0923, "EPHEMERIS_TYPE": 0, "CLASSIFICATION_TYPE": "U", "NORAD_CAT_ID": 43508, "ELEMENT_SET_NO": 999, "REV_AT_EPOCH": 5830, "BSTAR": 0, "MEAN_MOTION_DOT": -4.1e-07, "MEAN_MOTION_DDOT": 0}, "tle": {"line1": "1 43508U 18053A   25346.78796406 -.00000041  00000+0  00000+0 0  9998", "line2": "2 43508  65.4727  80.1298 0008616 224.8519 135.0923  2.13102055 58301"}}, "geometry": {"type": "Point", "coordinates": [-161.6744280694487, 62.64121099795705]}}, {"type": "Feature", "properties": {"norad_id": 43687, "name": "COSMOS 2529 (757)", "group": "glo-ops", "lat": 24.94205505699706, "lon": -148.20057492692425, "alt_km": 19139.84406374941, "timestamp": "2025-12-13T20:38:51.265724+00:00", "meta": {"OBJECT_NAME": "COSMOS 2529 (757)", "OBJECT_ID": "2018-086A", "EPOCH": "2025-12-11T22:43:29.696736", "MEAN_MOTION": 2.1310189, "ECCENTRICITY": 0.00071924, "INCLINATION": 64.292, "RA_OF_ASC_NODE": 198.9152, "ARG_OF_PERICENTER": 254.1119, "MEAN_ANOMALY": 105.8792, "EPHEMERIS_TYPE": 0, "CLASSIFICATION_TYPE": "U", "NORAD_CAT_ID": 43687, "ELEMENT_SET_NO": 999, "REV_AT_EPOCH": 5529, "BSTAR": 0, "MEAN_MOTION_DOT": 6.1e-07, "MEAN_MOTION_DDOT": 0}, "tle": {"line1": "1 43687U 18086A   25345.94687149  .00000061  00000+0  00000+0 0  9993", "line2": "2 43687  64.2920 198.9152 0007192 254.1119 105.8792  2.13101890 55298"}}, "geometry": {"type": "Point", "coordinates": [-148.20057492692425, 24.94205505699706]}}, {"type": "Feature", "properties": {"norad_id": 44299, "name": "COSMOS 2534 (758)", "group": "glo-ops", "lat": 15.959807113792301, "lon": 10.965732340693666, "alt_km": 19140.158843145775, "timestamp": "2025-12-13T20:38:51.265737+00:00", "meta": {"OBJECT_NAME": "COSMOS 2534 (758)", "OBJECT_ID": "2019-030A", "EPOCH": "2025-12-10T14:34:24.563136", "MEAN_MOTION": 2.13102261, "ECCENTRICITY": 0.0008999, "INCLINATION": 64.3653, "RA_OF_ASC_NODE": 198.9649, "ARG_OF_PERICENTER": 283.4628, "MEAN_ANOMALY": 263.2195, "EPHEMERIS_TYPE": 0, "CLASSIFICATION_TYPE": "U", "NORAD_CAT_ID": 44299, "ELEMENT_SET_NO": 999, "REV_AT_EPOCH": 5090, "BSTAR": 0, "MEAN_MOTION_DOT": 4.7e-07, "MEAN_MOTION_DDOT": 0}, "tle": {"line1": "1 44299U 19030A   25344.60722874  .00000047  00000+0  00000+0 0  9994", "line2": "2 44299  64.3653 198.9649 0008999 283.4628 263.2195  2.13102261 50901"}}, "geometry": {"type": "Point", "coordinates": [10.965732340693666, 15.959807113792301]}}, {"type": "Feature", "properties": {"norad_id": 44850, "name": "COSMOS 2544 (759)", "group": "glo-ops", "lat": 31.49172660812651, "lon": -116.30232196060047, "alt_km": 19134.8818474675, "timestamp": "2025-12-13T20:38:51.265748+00:00", "meta": {"OBJECT_NAME": "COSMOS 2544 (759)", "OBJECT_ID": "2019-088A", "EPOCH": "2025-12-11T19:03:21.616416", "MEAN_MOTION": 2.13101808, "ECCENTRICITY": 0.00136914, "INCLINATION": 65.4596, "RA_OF_ASC_NODE": 79.99, "ARG_OF_PERICENTER": 249.2614, "MEAN_ANOMALY": 110.6076, "EPHEMERIS_TYPE": 0, "CLASSIFICATION_TYPE": "U", "NORAD_CAT_ID": 44850, "ELEMENT_SET_NO": 999, "REV_AT_EPOCH": 4672, "BSTAR": 0, "MEAN_MOTION_DOT": -3.2e-07, "MEAN_MOTION_DDOT": 0}, "tle": {"line1": "1 44850U 19088A   25345.79400019 -.00000032  00000+0  00000+0 0  9990", "line2": "2 44850  65.4596  79.9900 0013691 249.2614 110.6076  2.13101808 46724"}}, "geometry": {"type": "Point", "coordinates": [-116.30232196060047, 31.49172660812651]}}]}